ONEWEB-0387             
1 49313U 21090AL  24196.57090703  .00000091  00000+0  19242-3 0  9995
2 49313  87.9193  54.2900 0001831  95.7267 264.4075 13.20770677137074
ONEWEB-0388             
1 49314U 21090AM  24196.43451898 -.00000226  00000+0 -59609-3 0  9990
2 49314  87.9141  84.8147 0002007  78.1296 282.0062 13.19724846133728
ONEWEB-0389             
1 50469U 21132A   24196.56201248  .00000054  00000+0  10531-3 0  9994
2 50469  87.9188 145.7649 0002033  93.9833 266.1531 13.17650462125553
ONEWEB-0390             
1 50470U 21132B   24196.56363312  .00000116  00000+0  26492-3 0  9999
2 50470  87.9186 145.7722 0001690  83.7367 276.3957 13.17651910125556
ONEWEB-0391             
1 50471U 21132C   24196.56524327  .00000086  00000+0  18712-3 0  9997
2 50471  87.9195 145.7572 0002152  91.6987 268.4390 13.17651144125552
ONEWEB-0392             
1 50472U 21132D   24196.59433023  .00000030  00000+0  43632-4 0  9992
2 50472  87.9178 145.7475 0002114  97.5003 262.6369 13.17649902125593
ONEWEB-0393             
1 50473U 21132E   24196.56863456  .00000114  00000+0  26089-3 0  9996
2 50473  87.9190 145.7320 0002042  88.8915 271.2450 13.17648097125582
ONEWEB-0394             
1 50474U 21132F   24196.48146253  .00000036  00000+0  58096-4 0  9994
2 50474  87.9147 115.3491 0002082  80.8757 279.2611 13.18687007128986
